463P/NEOWISE,e,29.2934,283.2155,216.3435,2.974250,0.1921488,0.82574820,113.4250,11/09.0/2024,2000,g 18.0,4.0
# From MPEC 2024-Q20
464P/PANSTARRS,e,21.6708,309.5772,267.5853,4.685152,0.0971893,0.28045954,60.3059,11/09.0/2024,2000,g 10.5,4.0
# From MPEC 2024-NE4
465P/Hill,e,25.8641,217.9853,141.0369,6.016981,0.0667784,0.61346427,36.7088,11/09.0/2024,2000,g 12.5,4.0
# From MPEC 2024-JU4
466P/PANSTARRS,e,12.3098,119.3642,197.2844,4.056580,0.1206324,0.47004441,66.8162,11/09.0/2024,2000,g 14.0,4.0
# From MPEC 2023-T65
467P/LINEAR-Grauer,e,2.4790,43.2655,267.7749,5.828964,0.0700353,0.05490084,49.6826,11/09.0/2024,2000,g  9.0,4.0
# From MPEC 2024-O39
468P/SidingSpring,e,50.4480,356.1238,322.5883,7.121497,0.0518617,0.44530842,18.3463,11/09.0/2024,2000,g 11.5,4.0
# From MPEC 2024-P23
469P/PANSTARRS,e,20.1737,178.9663,43.5073,4.341135,0.1089680,0.30776940,317.0122,11/09.0/2024,2000,g 13.5,4.0
# From MPEC 2024-R10
470P/PANSTARRS,e,8.8446,246.1756,151.7940,4.468795,0.1043322,0.38977324,34.1983,11/09.0/2024,2000,g 15.5,4.0
# From MPEC 2024-GJ3
471P/,e,4.7953,283.3060,94.8912,5.704048,0.0723485,0.62803673,23.5084,11/09.0/2024,2000,g 12.0,4.0
# From MPEC 2024-VB7
472P/NEAT-LINEAR,e,10.8276,205.9414,218.9046,7.815880,0.0451063,0.56637933,5.2762,11/09.0/2024,2000,g 10.5,4.0
# From MPEC 2024-MB8
473P/NEAT,e,56.9068,22.1858,42.9241,7.969968,0.0438045,0.82359598,11.2470,11/09.0/2024,2000,g 13.5,4.0
# From MPEC 2024-B74
474P/Hogan,e,1.0970,26.7457,11.2583,3.130289,0.1779621,0.18823521,85.8164,11/09.0/2024,2000,g 15.5,4.0
# From MPEC 2024-O39
475P/Spacewatch-LINEAR,e,14.5243,147.3703,40.3914,7.312592,0.0498422,0.44240791,7.9965,11/09.0/2024,2000,g 11.0,4.0
# From MPEC 2024-Q20
476P/PANSTARRS,e,19.0045,57.0572,46.7356,4.779104,0.0943375,0.34647542,2.2147,11/09.0/2024,2000,g 12.5,4.0
# From MPEC 2024-GJ3
477P/PANSTARRS,e,8.9142,59.1550,305.9365,3.003588,0.1893405,0.41747326,60.2793,11/09.0/2024,2000,g 14.5,4.0
# From MPEC 2024-L77
478P/ATLAS,e,12.5247,127.2692,13.1993,3.646571,0.1415393,0.34358543,27.0298,11/09.0/2024,2000,g 13.5,4.0
# From MPEC 2024-PC5
479P/Elenin,e,15.3986,295.8314,263.5217,5.623635,0.0739058,0.77885556,13.8765,11/09.0/2024,2000,g 15.0,4.0
# From MPEC 2024-GJ3
480P/PANSTARRS,e,13.7175,229.9772,214.3264,4.609050,0.0996063,0.24640320,56.3445,11/09.0/2024,2000,g 12.0,4.0
# From MPEC 2024-L77
481P/Lemmon-PANSTARRS,e,6.0826,93.5516,356.7336,4.679697,0.0973593,0.34347668,47.6035,11/09.0/2024,2000,g 13.5,4.0
# From MPEC 2024-JU4
482P/PANSTARRS,e,24.4849,126.0884,339.6870,3.755881,0.1354055,0.49235757,71.2133,11/09.0/2024,2000,g 13.5,4.0
# From MPEC 2024-R10
483P-A/PANSTARRS,e,14.2496,199.6460,48.5151,3.190595,0.1729405,0.22424490,171.1514,11/09.0/2024,2000,g 13.5,4.0
# From MPEC 2024-R10
483P-B/PANSTARRS,e,14.2504,199.6455,48.5049,3.190527,0.1729460,0.22418410,171.1861,11/09.0/2024,2000,g 17.0,4.0
# From MPEC 2024-DD5
484P/Spacewatch,e,14.4752,265.3949,240.7682,3.757831,0.1353001,0.43263578,195.2216,11/09.0/2024,2000,g 16.0,4.0
# From MPEC 2024-JU4
485P/Sheppard-Tholen,e,10.0161,261.6452,196.0433,6.848146,0.0549977,0.41713042,24.3147,11/09.0/2024,2000,g 13.0,4.0
# From MPEC 2024-R10
486P/Leonard,e,2.2095,219.0280,93.9484,3.628740,0.1425838,0.36371830,339.2033,11/09.0/2024,2000,g 14.5,4.0
# From MPEC 2024-VB7
487P/SidingSpring,e,39.3695,49.2108,0.8640,5.165853,0.0839443,0.64865710,1.6243,11/09.0/2024,2000,g 13.5,4.0
# From MPEC 2024-UA9
488P/NEAT-PANSTARRS,e,11.3642,324.0684,1.4730,3.733132,0.1366451,0.55052885,23.7498,11/09.0/2024,2000,g 16.5,4.0
# From MPEC 2024-Q14
489P/Denning,e,4.0269,20.6115,109.4469,4.421743,0.1060020,0.64697030,318.6177,11/09.0/2024,2000,g 15.5,4.0
# From MPEC 2024-UQ8
490P/ATLAS,e,12.2663,307.6078,332.5235,3.029913,0.1868783,0.64726285,7.8140,11/09.0/2024,2000,g 21.0,4.0
# From MPEC 2024-UQ8
491P/Spacewatch-PANSTARRS,e,9.3652,311.6899,298.9212,5.013674,0.0877950,0.25868613,5.5930,11/09.0/2024,2000,g  9.5,4.0
# From MPEC 2024-VB7
492P/LINEAR,e,11.4001,11.3149,40.9981,5.765666,0.0711918,0.69089677,7.9371,11/09.0/2024,2000,g 15.0,4.0
# From MPEC 2024-VB7
493P/LONEOS,e,24.1148,1.1140,83.1829,7.159055,0.0514542,0.46587913,337.8159,11/09.0/2024,2000,g 12.0,2.0
# From MPC107687
1I/`Oumuamua,h,09/09.4886/2017,122.6778,24.5997,241.6845,1.199252,0.255240,2000,23.0,2.0
# From MPEC 2023-L37
2I/Borisov,h,12/08.5548/2019,44.0527,308.1480,209.1251,3.356633,2.006548,2000,11.0,4.0
